start=new Date('2022-09-14T00:00:00.000Z').valueOf();
sats=[{"OBJECT_TYPE":"PAYLOAD","FILE":"3572069","PERIOD":"95.592","LAUNCH_DATE":"2020-11-25","INCLINATION":"53.0554","CLASSIFICATION_TYPE":"U","MEAN_ANOMALY":"283.7871","RA_OF_ASC_NODE":"257.6874","RCS_SIZE":"LARGE","MEAN_ELEMENT_THEORY":"SGP4","SEMIMAJOR_AXIS":"6925.341","BSTAR":"0.00011012000000","REF_FRAME":"TEME","OBJECT_NAME":"STARLINK-1871","DECAY_DATE":null,"TIME_SYSTEM":"UTC","MEAN_MOTION":"15.06402512","PERIAPSIS":"546.292","ELEMENT_SET_NO":"999","ECCENTRICITY":"0.00013190","ARG_OF_PERICENTER":"76.3265","REV_AT_EPOCH":"9992","COUNTRY_CODE":"US","APOAPSIS":"548.119","MEAN_MOTION_DOT":"0.00001359","NORAD_CAT_ID":"47157","SITE":"AFETR","TLE_LINE1":"1 47157U 20088AM  22256.38846155  .00001359  00000-0  11012-3 0  9995","OBJECT_ID":"2020-088AM","GP_ID":"212488612","EPHEMERIS_TYPE":"0","MEAN_MOTION_DDOT":"0.0000000000000","EPOCH":"2022-09-13T09:19:23.077920","CENTER_NAME":"EARTH","TLE_LINE2":"2 47157  53.0554 257.6874 0001319  76.3265 283.7871 15.06402512 99921"},{"PERIAPSIS":"546.204","ELEMENT_SET_NO":"999","ECCENTRICITY":"0.00014700","ARG_OF_PERICENTER":"83.5725","REV_AT_EPOCH":"10002","SEMIMAJOR_AXIS":"6925.357","BSTAR":"0.00007787500000","REF_FRAME":"TEME","OBJECT_NAME":"STARLINK-1873","DECAY_DATE":null,"TIME_SYSTEM":"UTC","MEAN_MOTION":"15.06397244","MEAN_ELEMENT_THEORY":"SGP4","RCS_SIZE":"LARGE","RA_OF_ASC_NODE":"248.7839","CLASSIFICATION_TYPE":"U","MEAN_ANOMALY":"276.5431","LAUNCH_DATE":"2020-11-25","INCLINATION":"53.0551","OBJECT_TYPE":"PAYLOAD","FILE":"3572069","PERIOD":"95.592","TLE_LINE2":"2 47158  53.0551 248.7839 0001470  83.5725 276.5431 15.06397244100021","MEAN_MOTION_DDOT":"0.0000000000000","EPOCH":"2022-09-13T03:30:23.650848","CENTER_NAME":"EARTH","GP_ID":"212488855","EPHEMERIS_TYPE":"0","OBJECT_ID":"2020-088AN","TLE_LINE1":"1 47158U 20088AN  22256.14610707  .00000879  00000-0  77875-4 0  9998","SITE":"AFETR","MEAN_MOTION_DOT":"0.00000879","APOAPSIS":"548.240","NORAD_CAT_ID":"47158","COUNTRY_CODE":"US"},{"TLE_LINE2":"2 47161  53.0537 246.2447 0001544  66.9628 293.1524 15.06395137100113","CENTER_NAME":"EARTH","MEAN_MOTION_DDOT":"0.0000000000000","EPOCH":"2022-09-13T17:02:29.037984","GP_ID":"212534122","EPHEMERIS_TYPE":"0","OBJECT_ID":"2020-088AR","SITE":"AFETR","TLE_LINE1":"1 47161U 20088AR  22256.71005831  .00000141  00000-0  28376-4 0  9995","APOAPSIS":"548.298","MEAN_MOTION_DOT":"0.00000141","NORAD_CAT_ID":"47161","COUNTRY_CODE":"US","PERIAPSIS":"546.159","REV_AT_EPOCH":"10011","ELEMENT_SET_NO":"999","ARG_OF_PERICENTER":"66.9628","ECCENTRICITY":"0.00015440","DECAY_DATE":null,"TIME_SYSTEM":"UTC","SEMIMAJOR_AXIS":"6925.363","BSTAR":"0.00002837600000","OBJECT_NAME":"STARLINK-1876","REF_FRAME":"TEME","MEAN_MOTION":"15.06395137","MEAN_ELEMENT_THEORY":"SGP4","RCS_SIZE":"LARGE","RA_OF_ASC_NODE":"246.2447","CLASSIFICATION_TYPE":"U","MEAN_ANOMALY":"293.1524","LAUNCH_DATE":"2020-11-25","INCLINATION":"53.0537","OBJECT_TYPE":"PAYLOAD","FILE":"3573088","PERIOD":"95.592"},{"CLASSIFICATION_TYPE":"U","MEAN_ANOMALY":"283.3565","RA_OF_ASC_NODE":"257.4714","OBJECT_TYPE":"PAYLOAD","FILE":"3572069","PERIOD":"95.592","LAUNCH_DATE":"2020-11-25","INCLINATION":"53.0537","DECAY_DATE":null,"TIME_SYSTEM":"UTC","SEMIMAJOR_AXIS":"6925.353","BSTAR":"0.00006287000000","REF_FRAME":"TEME","OBJECT_NAME":"STARLINK-1877","MEAN_MOTION":"15.06398478","PERIAPSIS":"546.333","REV_AT_EPOCH":"9993","ELEMENT_SET_NO":"999","ECCENTRICITY":"0.00012780","ARG_OF_PERICENTER":"76.7566","RCS_SIZE":"LARGE","MEAN_ELEMENT_THEORY":"SGP4","SITE":"AFETR","TLE_LINE1":"1 47162U 20088AS  22256.44006160  .00000655  00000-0  62870-4 0  9999","OBJECT_ID":"2020-088AS","COUNTRY_CODE":"US","MEAN_MOTION_DOT":"0.00000655","APOAPSIS":"548.103","NORAD_CAT_ID":"47162","TLE_LINE2":"2 47162  53.0537 257.4714 0001278  76.7566 283.3565 15.06398478 99933","GP_ID":"212487861","EPHEMERIS_TYPE":"0","CENTER_NAME":"EARTH","MEAN_MOTION_DDOT":"0.0000000000000","EPOCH":"2022-09-13T10:33:41.322240"},{"EPHEMERIS_TYPE":"0","GP_ID":"212535124","CENTER_NAME":"EARTH","MEAN_MOTION_DDOT":"0.0000000000000","EPOCH":"2022-09-13T17:42:17.960832","TLE_LINE2":"2 47163  53.0549 266.1220 0001361  86.5357 273.5788 15.06393266 99833","COUNTRY_CODE":"US","NORAD_CAT_ID":"47163","MEAN_MOTION_DOT":"0.00001013","APOAPSIS":"548.177","TLE_LINE1":"1 47163U 20088AT  22256.73770788  .00001013  00000-0  86889-4 0  9991","SITE":"AFETR","OBJECT_ID":"2020-088AT","RCS_SIZE":"LARGE","MEAN_ELEMENT_THEORY":"SGP4","MEAN_MOTION":"15.06393266","DECAY_DATE":null,"TIME_SYSTEM":"UTC","OBJECT_NAME":"STARLINK-1878","SEMIMAJOR_AXIS":"6925.369","BSTAR":"0.00008688900000","REF_FRAME":"TEME","REV_AT_EPOCH":"9983","ELEMENT_SET_NO":"999","ECCENTRICITY":"0.00013610","ARG_OF_PERICENTER":"86.5357","PERIAPSIS":"546.292","PERIOD":"95.593","OBJECT_TYPE":"PAYLOAD","FILE":"3573088","INCLINATION":"53.0549","LAUNCH_DATE":"2020-11-25","MEAN_ANOMALY":"273.5788","CLASSIFICATION_TYPE":"U","RA_OF_ASC_NODE":"266.1220"},{"SEMIMAJOR_AXIS":"6925.352","OBJECT_NAME":"STARLINK-1879","BSTAR":"0.00015803000000","REF_FRAME":"TEME","DECAY_DATE":null,"TIME_SYSTEM":"UTC","MEAN_MOTION":"15.06399004","PERIAPSIS":"546.264","ELEMENT_SET_NO":"999","ARG_OF_PERICENTER":"77.3338","ECCENTRICITY":"0.00013760","REV_AT_EPOCH":"10019","RCS_SIZE":"LARGE","MEAN_ELEMENT_THEORY":"SGP4","CLASSIFICATION_TYPE":"U","MEAN_ANOMALY":"282.7805","RA_OF_ASC_NODE":"237.9659","FILE":"3572069","OBJECT_TYPE":"PAYLOAD","PERIOD":"95.592","LAUNCH_DATE":"2020-11-25","INCLINATION":"53.0536","TLE_LINE2":"2 47164  53.0536 237.9659 0001376  77.3338 282.7805 15.06399004100195","GP_ID":"212488355","EPHEMERIS_TYPE":"0","EPOCH":"2022-09-13T07:51:47.944800","MEAN_MOTION_DDOT":"0.0000000000000","CENTER_NAME":"EARTH","TLE_LINE1":"1 47164U 20088AU  22256.32763825  .00002073  00000-0  15803-3 0  9995","SITE":"AFETR","OBJECT_ID":"2020-088AU","COUNTRY_CODE":"US","APOAPSIS":"548.170","MEAN_MOTION_DOT":"0.00002073","NORAD_CAT_ID":"47164"},{"OBJECT_ID":"2020-088AV","SITE":"AFETR","TLE_LINE1":"1 47165U 20088AV  22256.39952460  .00008181  00000-0  56730-3 0  9998","NORAD_CAT_ID":"47165","MEAN_MOTION_DOT":"0.00008181","APOAPSIS":"548.105","COUNTRY_CODE":"US","TLE_LINE2":"2 47165  53.0531 257.6333 0001335  72.9190 287.1945 15.06410907 99929","MEAN_MOTION_DDOT":"0.0000000000000","EPOCH":"2022-09-13T09:35:18.925440","CENTER_NAME":"EARTH","EPHEMERIS_TYPE":"0","GP_ID":"212487611","RA_OF_ASC_NODE":"257.6333","MEAN_ANOMALY":"287.1945","CLASSIFICATION_TYPE":"U","INCLINATION":"53.0531","LAUNCH_DATE":"2020-11-25","PERIOD":"95.591","FILE":"3572069","OBJECT_TYPE":"PAYLOAD","ECCENTRICITY":"0.00013350","ELEMENT_SET_NO":"999","ARG_OF_PERICENTER":"72.9190","REV_AT_EPOCH":"9992","PERIAPSIS":"546.256","MEAN_MOTION":"15.06410907","REF_FRAME":"TEME","SEMIMAJOR_AXIS":"6925.315","BSTAR":"0.00056730000000","OBJECT_NAME":"STARLINK-1880","DECAY_DATE":null,"TIME_SYSTEM":"UTC","MEAN_ELEMENT_THEORY":"SGP4","RCS_SIZE":"LARGE"},{"OBJECT_ID":"2020-088AW","SITE":"AFETR","TLE_LINE1":"1 47166U 20088AW  22256.70421213  .00034146  00000-0  56932-3 0  9995","APOAPSIS":"413.984","MEAN_MOTION_DOT":"0.00034146","NORAD_CAT_ID":"47166","COUNTRY_CODE":"US","TLE_LINE2":"2 47166  53.0473 140.2295 0003204 147.4184 212.7023 15.51684992101615","MEAN_MOTION_DDOT":"0.0000000000000","EPOCH":"2022-09-13T16:54:03.928032","CENTER_NAME":"EARTH","GP_ID":"212534373","EPHEMERIS_TYPE":"0","RA_OF_ASC_NODE":"140.2295","CLASSIFICATION_TYPE":"U","MEAN_ANOMALY":"212.7023","LAUNCH_DATE":"2020-11-25","INCLINATION":"53.0473","FILE":"3573088","OBJECT_TYPE":"PAYLOAD","PERIOD":"92.802","PERIAPSIS":"409.633","ECCENTRICITY":"0.00032040","ELEMENT_SET_NO":"999","ARG_OF_PERICENTER":"147.4184","REV_AT_EPOCH":"10161","OBJECT_NAME":"STARLINK-1881","SEMIMAJOR_AXIS":"6789.943","BSTAR":"0.00056932000000","REF_FRAME":"TEME","TIME_SYSTEM":"UTC","DECAY_DATE":null,"MEAN_MOTION":"15.51684992","MEAN_ELEMENT_THEORY":"SGP4","RCS_SIZE":"LARGE"},{"CENTER_NAME":"EARTH","MEAN_MOTION_DDOT":"0.0000000000000","EPOCH":"2022-09-13T09:14:04.327584","GP_ID":"212488613","EPHEMERIS_TYPE":"0","TLE_LINE2":"2 47167  53.0538 257.6947 0001396  64.8578 295.2556 15.06403976 99922","MEAN_MOTION_DOT":"0.00001150","APOAPSIS":"548.168","NORAD_CAT_ID":"47167","COUNTRY_CODE":"US","OBJECT_ID":"2020-088AX","SITE":"AFETR","TLE_LINE1":"1 47167U 20088AX  22256.38477231  .00001150  00000-0  96043-4 0  9998","MEAN_ELEMENT_THEORY":"SGP4","RCS_SIZE":"LARGE","PERIAPSIS":"546.235","REV_AT_EPOCH":"9992","ECCENTRICITY":"0.00013960","ELEMENT_SET_NO":"999","ARG_OF_PERICENTER":"64.8578","TIME_SYSTEM":"UTC","DECAY_DATE":null,"SEMIMAJOR_AXIS":"6925.336","OBJECT_NAME":"STARLINK-1884","BSTAR":"0.00009604300000","REF_FRAME":"TEME","MEAN_MOTION":"15.06403976","LAUNCH_DATE":"2020-11-25","INCLINATION":"53.0538","OBJECT_TYPE":"PAYLOAD","FILE":"3572069","PERIOD":"95.592","RA_OF_ASC_NODE":"257.6947","CLASSIFICATION_TYPE":"U","MEAN_ANOMALY":"295.2556"},{"RCS_SIZE":"LARGE","MEAN_ELEMENT_THEORY":"SGP4","SEMIMAJOR_AXIS":"6925.367","BSTAR":"0.00006572200000","OBJECT_NAME":"STARLINK-1887","REF_FRAME":"TEME","DECAY_DATE":null,"TIME_SYSTEM":"UTC","MEAN_MOTION":"15.06394066","PERIAPSIS":"546.238","ARG_OF_PERICENTER":"68.4996","ELEMENT_SET_NO":"999","ECCENTRICITY":"0.00014350","REV_AT_EPOCH":"9999","FILE":"3573088","OBJECT_TYPE":"PAYLOAD","PERIOD":"95.593","LAUNCH_DATE":"2020-11-25","INCLINATION":"53.0535","CLASSIFICATION_TYPE":"U","MEAN_ANOMALY":"291.6146","RA_OF_ASC_NODE":"255.6850","GP_ID":"212535372","EPHEMERIS_TYPE":"0","MEAN_MOTION_DDOT":"0.0000000000000","EPOCH":"2022-09-13T20:01:37.086528","CENTER_NAME":"EARTH","TLE_LINE2":"2 47170  53.0535 255.6850 0001435  68.4996 291.6146 15.06394066 99993","COUNTRY_CODE":"US","MEAN_MOTION_DOT":"0.00000697","APOAPSIS":"548.226","NORAD_CAT_ID":"47170","SITE":"AFETR","TLE_LINE1":"1 47170U 20088BA  22256.83445702  .00000697  00000-0  65722-4 0  9995","OBJECT_ID":"2020-088BA"}];
